NORAD_CAT_ID,OBJECT_NAME,OBJECT_TYPE,EPOCH,MEAN_MOTION,ECCENTRICITY,INCLINATION,RA_OF_ASC_NODE,ARG_OF_PERICENTER,MEAN_ANOMALY,BSTAR,MEAN_MOTION_DOT,MEAN_MOTION_DDOT,TLE_LINE0,TLE_LINE1,TLE_LINE2,SEMIMAJOR_AXIS,PERIOD,APOGEE,PERIGEE,DECAYED
54164.0,STARLINK-5278,PAYLOAD,2024-03-15 03:34:40,15.08829843,0.0001416,53.2189,16.9173,86.135,273.9804,-0.00010117,-1.897e-05,0.0,0 STARLINK-5278,1 54164U 22141H   24075.14907578 -.00001897  00000-0 -10117-3 0  9999,2 54164  53.2189  16.9173 0001416  86.1350 273.9804 15.08829843 76477,6917.911,95.438,540.756,538.797,0.0
54164.0,STARLINK-5278,PAYLOAD,2024-03-15 19:28:31,15.0882833,0.0001426,53.2189,13.9447,88.3043,271.8113,-3.0202e-05,-7.68e-06,0.0,0 STARLINK-5278,1 54164U 22141H   24075.81147753 -.00000768  00000-0 -30202-4 0  9998,2 54164  53.2189  13.9447 0001426  88.3043 271.8113 15.08828330 76573,6917.916,95.438,540.768,538.795,0.0
54164.0,STARLINK-5278,PAYLOAD,2024-03-16 03:25:26,15.08838445,0.0001438,53.219,12.4587,83.9078,276.2078,-2.698e-05,-7.17e-06,0.0,0 STARLINK-5278,1 54164U 22141H   24076.14267305 -.00000717  00000-0 -26980-4 0  9993,2 54164  53.2190  12.4587 0001438  83.9078 276.2078 15.08838445 76629,6917.885,95.438,540.745,538.755,0.0
54164.0,STARLINK-5278,PAYLOAD,2024-03-16 05:00:49,15.08841818,0.0001375,53.2186,12.1597,87.2347,272.8803,6.3444e-06,-1.87e-06,0.0,0 STARLINK-5278,1 54164U 22141H   24076.20890941 -.00000187  00000-0  63444-5 0  9995,2 54164  53.2186  12.1597 0001375  87.2347 272.8803 15.08841818 76635,6917.875,95.437,540.691,538.789,0.0
54164.0,STARLINK-5278,PAYLOAD,2024-03-17 01:40:50,15.08828339,0.0001465,53.2183,8.2931,98.3963,261.7195,0.00013254,1.821e-05,0.0,0 STARLINK-5278,1 54164U 22141H   24077.07003379  .00001821  00000-0  13254-3 0  9999,2 54164  53.2183   8.2931 0001465  98.3963 261.7195 15.08828339 76765,6917.916,95.438,540.795,538.768,0.0
54164.0,STARLINK-5278,PAYLOAD,2024-03-17 19:10:05,15.0884205,0.0001449,53.2182,5.0215,105.147,254.9682,8.3398e-05,1.04e-05,0.0,0 STARLINK-5278,1 54164U 22141H   24077.79866963  .00001040  00000-0  83398-4 0  9994,2 54164  53.2182   5.0215 0001449 105.1470 254.9682 15.08842050 76879,6917.874,95.437,540.742,538.737,0.0
54164.0,STARLINK-5278,PAYLOAD,2024-03-18 04:42:23,15.08850494,0.0001479,53.2185,3.2382,100.3463,259.7696,0.00014904,2.085e-05,0.0,0 STARLINK-5278,1 54164U 22141H   24078.19610170  .00002085  00000-0  14904-3 0  9992,2 54164  53.2185   3.2382 0001479 100.3463 259.7696 15.08850494 76935,6917.848,95.437,540.736,538.69,0.0
54164.0,STARLINK-5278,PAYLOAD,2024-03-18 19:00:52,15.08837407,0.0001804,53.2203,0.5507,136.3661,223.7474,-6.3972e-05,-1.306e-05,0.0,0 STARLINK-5278,1 54164U 22141H   24078.79227595 -.00001306  00000-0 -63972-4 0  9990,2 54164  53.2203   0.5507 0001804 136.3661 223.7474 15.08837407 77021,6917.888,95.438,541.001,538.505,0.0
54164.0,STARLINK-5278,PAYLOAD,2024-03-18 22:11:39,15.088366,0.0001456,53.2182,359.9725,98.9289,261.1868,-1.3604e-05,-5.04e-06,0.0,0 STARLINK-5278,1 54164U 22141H   24078.92475784 -.00000504  00000-0 -13604-4 0  9996,2 54164  53.2182 359.9725 0001456  98.9289 261.1868 15.08836600 77041,6917.891,95.438,540.763,538.749,0.0
54164.0,STARLINK-5278,PAYLOAD,2024-03-19 04:33:11,15.08843636,0.0001317,53.2183,358.7789,101.75,258.364,7.9016e-05,9.7e-06,0.0,0 STARLINK-5278,1 54164U 22141H   24079.18971146  .00000970  00000-0  79016-4 0  9992,2 54164  53.2183 358.7789 0001317 101.7500 258.3640 15.08843636 77081,6917.869,95.437,540.645,538.823,0.0
54164.0,STARLINK-5278,PAYLOAD,2024-03-19 22:02:24,15.08858362,0.0001315,53.2194,355.5053,112.4703,247.6428,7.2253e-05,8.63e-06,0.0,0 STARLINK-5278,1 54164U 22141H   24079.91833905  .00000863  00000-0  72253-4 0  9990,2 54164  53.2194 355.5053 0001315 112.4703 247.6428 15.08858362 77193,6917.824,95.436,540.599,538.78,0.0
54164.0,STARLINK-5278,PAYLOAD,2024-03-20 01:13:10,15.08871224,0.0001312,53.2185,354.9115,109.8505,250.2628,0.00035588,5.385e-05,0.0,0 STARLINK-5278,1 54164U 22141H   24080.05081260  .00005385  00000-0  35588-3 0  9999,2 54164  53.2185 354.9115 0001312 109.8505 250.2628 15.08871224 77219,6917.785,95.436,540.558,538.742,0.0
54164.0,STARLINK-5278,PAYLOAD,2024-03-20 04:23:56,15.08872339,0.0001302,53.2186,354.3169,112.4555,247.6575,0.00036475,5.527e-05,0.0,0 STARLINK-5278,1 54164U 22141H   24080.18329010  .00005527  00000-0  36475-3 0  9995,2 54164  53.2186 354.3169 0001302 112.4555 247.6575 15.08872339 77238,6917.782,95.436,540.547,538.746,0.0
54164.0,STARLINK-5278,PAYLOAD,2024-03-20 21:53:12,15.08831613,0.0001366,53.2178,351.0466,108.9974,251.1166,-0.00013074,-2.368e-05,0.0,0 STARLINK-5278,1 54164U 22141H   24080.91195314 -.00002368  00000-0 -13074-3 0  9996,2 54164  53.2178 351.0466 0001366 108.9974 251.1166 15.08831613 77346,6917.906,95.438,540.716,538.826,0.0
54164.0,STARLINK-5278,PAYLOAD,2024-03-21 02:39:22,15.08833158,0.0001131,53.2185,350.1548,73.029,287.0826,-0.00012032,-2.202e-05,0.0,0 STARLINK-5278,1 54164U 22141H   24081.11067246 -.00002202  00000-0 -12032-3 0  9991,2 54164  53.2185 350.1548 0001131  73.0290 287.0826 15.08833158 77378,6917.901,95.438,540.549,538.984,0.0
54164.0,STARLINK-5278,PAYLOAD,2024-03-21 10:36:17,15.08832294,0.0001148,53.2185,348.6689,77.106,283.0061,-9.4275e-05,-1.788e-05,0.0,0 STARLINK-5278,1 54164U 22141H   24081.44187448 -.00001788  00000-0 -94275-4 0  9992,2 54164  53.2185 348.6689 0001148  77.1060 283.0061 15.08832294 77427,6917.904,95.438,540.563,538.975,0.0
54164.0,STARLINK-5278,PAYLOAD,2024-03-21 21:43:59,15.08837765,7.06e-05,53.2184,346.5855,98.466,261.6413,-3.2292e-05,-8.01e-06,0.0,0 STARLINK-5278,1 54164U 22141H   24081.90554879 -.00000801  00000-0 -32292-4 0  9995,2 54164  53.2184 346.5855 0000706  98.4660 261.6413 15.08837765 77497,6917.887,95.438,540.241,539.264,0.0
54164.0,STARLINK-5278,PAYLOAD,2024-03-22 02:30:08,15.08856811,0.0001217,53.2178,345.6946,111.2536,248.8586,0.00072131,0.00011216,0.0,0 STARLINK-5278,1 54164U 22141H   24082.10426491  .00011216  00000-0  72131-3 0  9991,2 54164  53.2178 345.6946 0001217 111.2536 248.8586 15.08856811 77520,6917.829,95.436,540.536,538.852,0.0
54164.0,STARLINK-5278,PAYLOAD,2024-03-22 16:48:38,15.08819865,6.72e-05,53.2184,343.0203,83.9252,276.1817,-0.0001034,-1.932e-05,0.0,0 STARLINK-5278,1 54164U 22141H   24082.70044561 -.00001932  00000-0 -10340-3 0  9991,2 54164  53.2184 343.0203 0000672  83.9252 276.1817 15.08819865 77618,6917.942,95.439,540.272,539.342,0.0
54164.0,STARLINK-5278,PAYLOAD,2024-03-22 21:34:47,15.08830987,0.0001157,53.2171,342.1253,120.6061,239.5046,6.9678e-05,8.21e-06,0.0,0 STARLINK-5278,1 54164U 22141H   24082.89916272  .00000821  00000-0  69678-4 0  9991,2 54164  53.2171 342.1253 0001157 120.6061 239.5046 15.08830987 77643,6917.908,95.438,540.573,538.973,0.0
54164.0,STARLINK-5278,PAYLOAD,2024-03-23 02:20:57,15.08837723,0.0001055,53.2173,341.2326,120.2241,239.8856,0.00033851,5.103e-05,0.0,0 STARLINK-5278,1 54164U 22141H   24083.09788210  .00005103  00000-0  33851-3 0  9994,2 54164  53.2173 341.2326 0001055 120.2241 239.8856 15.08837723 77679,6917.887,95.438,540.482,539.023,0.0
54164.0,STARLINK-5278,PAYLOAD,2024-03-23 21:25:33,15.08870892,0.0001277,53.2178,337.6626,139.8323,220.2764,0.00091157,0.00014262,0.0,0 STARLINK-5278,1 54164U 22141H   24083.89274911  .00014262  00000-0  91157-3 0  9999,2 54164  53.2178 337.6626 0001277 139.8323 220.2764 15.08870892 77798,6917.786,95.436,540.534,538.768,0.0
54164.0,STARLINK-5278,PAYLOAD,2024-03-24 00:36:19,15.08888274,0.0001313,53.2178,337.0752,91.4079,268.7064,0.0014781,0.00023345,0.0,0 STARLINK-5278,1 54164U 22141H   24084.02522769  .00023345  00000-0  14781-2 0  9991,2 54164  53.2178 337.0752 0001313  91.4079 268.7064 15.08888274 77810,6917.733,95.435,540.506,538.69,0.0
54164.0,STARLINK-5278,PAYLOAD,2024-03-24 10:08:38,15.08863824,0.0001448,53.218,335.2874,81.2832,278.8325,0.00074482,0.00011593,0.0,0 STARLINK-5278,1 54164U 22141H   24084.42266469  .00011593  00000-0  74482-3 0  9994,2 54164  53.2180 335.2874 0001448  81.2832 278.8325 15.08863824 77873,6917.808,95.436,540.674,538.671,0.0
54164.0,STARLINK-5278,PAYLOAD,2024-03-24 21:16:20,15.08873151,0.0001424,53.2183,333.2055,93.3202,266.7953,0.001374,0.00021667,0.0,0 STARLINK-5278,1 54164U 22141H   24084.88634543  .00021667  00000-0  13740-2 0  9998,2 54164  53.2183 333.2055 0001424  93.3202 266.7953 15.08873151 77949,6917.779,95.435,540.629,538.659,0.0
54164.0,STARLINK-5278,PAYLOAD,2024-03-24 22:51:43,15.08856218,0.0001007,53.2179,332.9085,100.2328,259.8778,0.0035546,0.00056764,0.0,0 STARLINK-5278,1 54164U 22141H   24084.95259037  .00056764  00000-0  35546-2 0  9991,2 54164  53.2179 332.9085 0001007 100.2328 259.8778 15.08856218 77951,6917.831,95.437,540.392,538.999,0.0
54164.0,STARLINK-5278,PAYLOAD,2024-03-25 09:59:25,15.08842353,0.0001556,53.219,330.8264,101.9225,258.1941,0.0013205,0.00020792,0.0,0 STARLINK-5278,1 54164U 22141H   24085.41627193  .00020792  00000-0  13205-2 0  9995,2 54164  53.2190 330.8264 0001556 101.9225 258.1941 15.08842353 78021,6917.873,95.437,540.815,538.662,0.0
54164.0,STARLINK-5278,PAYLOAD,2024-03-25 21:07:08,15.08835414,0.0002003,53.2194,328.7432,119.423,240.6962,0.0010073,0.00015778,0.0,0 STARLINK-5278,1 54164U 22141H   24085.87995754  .00015778  00000-0  10073-2 0  9994,2 54164  53.2194 328.7432 0002003 119.4230 240.6962 15.08835414 78092,6917.894,95.438,541.145,538.374,0.0
54164.0,STARLINK-5278,PAYLOAD,2024-03-25 22:42:31,15.0883916,0.0001681,53.2183,328.4471,121.4106,238.705,0.0005236,8.055e-05,0.0,0 STARLINK-5278,1 54164U 22141H   24085.94619722  .00008055  00000-0  52360-3 0  9996,2 54164  53.2183 328.4471 0001681 121.4106 238.7050 15.08839160 78106,6917.883,95.438,540.911,538.585,0.0
54164.0,STARLINK-5278,PAYLOAD,2024-03-26 20:57:56,15.0882893,0.0001909,53.2177,324.2845,124.0224,236.095,0.00025368,3.75e-05,0.0,0 STARLINK-5278,1 54164U 22141H   24086.87356878  .00003750  00000-0  25368-3 0  9994,2 54164  53.2177 324.2845 0001909 124.0224 236.0950 15.08828930 78249,6917.914,95.438,541.1,538.459,0.0
